$$SOE
2459580.500000000, A.D. 2022-Jan-01 00:00:00.0000, 5.090620968129099E+08, -8.123710928007630E+07, 1.024396591338799E+08,
2459587.500000000, A.D. 2022-Jan-08 00:00:00.0000, 5.114788906038365E+08, -7.266015764997137E+07, 1.011562440459925E+08,
2459594.500000000, A.D. 2022-Jan-15 00:00:00.0000, 5.137257712132556E+08, -6.405937664473756E+07, 9.983894900529391E+07,
2459601.500000000, A.D. 2022-Jan-22 00:00:00.0000, 5.158027897711244E+08, -5.543772937019177E+07, 9.848836952166007E+07,
2459608.500000000, A.D. 2022-Jan-29 00:00:00.0000, 5.177100340761745E+08, -4.679815362815925E+07, 9.710510312611632E+07,
2459615.500000000, A.D. 2022-Feb-05 00:00:00.0000, 5.194476255469777E+08, -3.814356290053910E+07, 9.568974942724082E+07,
2459622.500000000, A.D. 2022-Feb-12 00:00:00.0000, 5.210157183836047E+08, -2.947684841416403E+07, 9.424290989109865E+07,
2459629.500000000, A.D. 2022-Feb-19 00:00:00.0000, 5.224144996137964E+08, -2.080087991582527E+07, 9.276518765914811E+07,
2459636.500000000, A.D. 2022-Feb-26 00:00:00.0000, 5.236441887117793E+08, -1.211850587904704E+07, 9.125718746491440E+07,
2459643.500000000, A.D. 2022-Mar-05 00:00:00.0000, 5.247050369485486E+08, -3.432553758385479E+06, 8.971951558395591E+07,
2459650.500000000, A.D. 2022-Mar-12 00:00:00.0000, 5.255973266948987E+08, 5.254169644118723E+06, 8.815277979087846E+07,
2459657.500000000, A.D. 2022-Mar-19 00:00:00.0000, 5.263213707477077E+08, 1.393887772949926E+07, 8.655758931862608E+07,
2459664.500000000, A.D. 2022-Mar-26 00:00:00.0000, 5.268775117013900E+08, 2.261880356461732E+07, 8.493455481700264E+07,
2459671.500000000, A.D. 2022-Apr-02 00:00:00.0000, 5.272661214318979E+08, 3.129119920228782E+07, 8.328428829917254E+07,
2459678.500000000, A.D. 2022-Apr-09 00:00:00.0000, 5.274876009647459E+08, 3.995333486440315E+07, 8.160740305106883E+07,
2459685.500000000, A.D. 2022-Apr-16 00:00:00.0000, 5.275423810830160E+08, 4.860249864298801E+07, 7.990451352374099E+07,
2459692.500000000, A.D. 2022-Apr-23 00:00:00.0000, 5.274309224054090E+08, 5.723599780506990E+07, 7.817623541320404E+07,
2459699.500000000, A.D. 2022-Apr-30 00:00:00.0000, 5.271537130647548E+08, 6.585115945759134E+07, 7.642318591600884E+07,
2459706.500000000, A.D. 2022-May-07 00:00:00.0000, 5.267112670501313E+08, 7.444532859892222E+07, 7.464598371823370E+07,
2459713.500000000, A.D. 2022-May-14 00:00:00.0000, 5.261041246007986E+08, 8.301586659552819E+07, 7.284524883819671E+07,
2459720.500000000, A.D. 2022-May-21 00:00:00.0000, 5.253328526200709E+08, 9.156015084356186E+07, 7.102160257093012E+07,
2459727.500000000, A.D. 2022-May-28 00:00:00.0000, 5.243980446301919E+08, 1.000755746574902E+08, 6.917566749993546E+07,
2459734.500000000, A.D. 2022-Jun-04 00:00:00.0000, 5.233003205452802E+08, 1.085595470735475E+08, 6.730806752517478E+07,
2459741.500000000, A.D. 2022-Jun-11 00:00:00.0000, 5.220403264068406E+08, 1.170094925706488E+08, 6.541942789408376E+07,
2459748.500000000, A.D. 2022-Jun-18 00:00:00.0000, 5.206187341201347E+08, 1.254228507224006E+08, 6.351037523295086E+07,
2459755.500000000, A.D. 2022-Jun-25 00:00:00.0000, 5.190362412201725E+08, 1.337970757473967E+08, 6.158153757299829E+07,
2459762.500000000, A.D. 2022-Jul-02 00:00:00.0000, 5.172935708004735E+08, 1.421296358925482E+08, 5.963354435322585E+07,
2459769.500000000, A.D. 2022-Jul-09 00:00:00.0000, 5.153914719937844E+08, 1.504180128270098E+08, 5.766702637841257E+07,
2459776.500000000, A.D. 2022-Jul-16 00:00:00.0000, 5.133307209480826E+08, 1.586597021304454E+08, 5.568261582560599E+07,
2459783.500000000, A.D. 2022-Jul-23 00:00:00.0000, 5.111121200986978E+08, 1.668522149553317E+08, 5.368094650734477E+07,
2459790.500000000, A.D. 2022-Jul-30 00:00:00.0000, 5.087364958222660E+08, 1.749930775110875E+08, 5.166265411054942E+07,
2459797.500000000, A.D. 2022-Aug-06 00:00:00.0000, 5.062046980725505E+08, 1.830798290180448E+08, 4.962837613424490E+07,
2459804.500000000, A.D. 2022-Aug-13 00:00:00.0000, 5.035176011745072E+08, 1.911100208855188E+08, 4.757875182668032E+07,
2459811.500000000, A.D. 2022-Aug-20 00:00:00.0000, 5.006761042068819E+08, 1.990812166109272E+08, 4.551442222472946E+07,
2459818.500000000, A.D. 2022-Aug-27 00:00:00.0000, 4.976811310413468E+08, 2.069909916737532E+08, 4.343603023002517E+07,
2459825.500000000, A.D. 2022-Sep-03 00:00:00.0000, 4.945336302858775E+08, 2.148369333141603E+08, 4.134422069005452E+07,
2459832.500000000, A.D. 2022-Sep-10 00:00:00.0000, 4.912345752221851E+08, 2.226166402205801E+08, 3.923964047785443E+07,
2459839.500000000, A.D. 2022-Sep-17 00:00:00.0000, 4.877849637663757E+08, 2.303277221250212E+08, 3.712293856736055E+07,
2459846.500000000, A.D. 2022-Sep-24 00:00:00.0000, 4.841858185131668E+08, 2.379677992557406E+08, 3.499476609455396E+07,
2459853.500000000, A.D. 2022-Oct-01 00:00:00.0000, 4.804381871037315E+08, 2.455345016253903E+08, 3.285577638032851E+07,
2459860.500000000, A.D. 2022-Oct-08 00:00:00.0000, 4.765431433243967E+08, 2.530254686766526E+08, 3.070662491997576E+07,
2459867.500000000, A.D. 2022-Oct-15 00:00:00.0000, 4.725017880032260E+08, 2.604383504843270E+08, 2.854796952220783E+07,
2459874.500000000, A.D. 2022-Oct-22 00:00:00.0000, 4.683152475218960E+08, 2.677708088310286E+08, 2.638047065991415E+07,
2459881.500000000, A.D. 2022-Oct-29 00:00:00.0000, 4.639846724416111E+08, 2.750205155642098E+08, 2.420479159140113E+07,
2459888.500000000, A.D. 2022-Nov-05 00:00:00.0000, 4.595112383424704E+08, 2.821851509754705E+08, 2.202159828304340E+07,
2459895.500000000, A.D. 2022-Nov-12 00:00:00.0000, 4.548961469103829E+08, 2.892624034696308E+08, 1.983155941667521E+07,
2459902.500000000, A.D. 2022-Nov-19 00:00:00.0000, 4.501406265516824E+08, 2.962499695704411E+08, 1.763534646949093E+07,
2459909.500000000, A.D. 2022-Nov-26 00:00:00.0000, 4.452459327977425E+08, 3.031455538666388E+08, 1.543363380975935E+07,
2459916.500000000, A.D. 2022-Dec-03 00:00:00.0000, 4.402133486658812E+08, 3.099468688877498E+08, 1.322709879203096E+07,
2459923.500000000, A.D. 2022-Dec-10 00:00:00.0000, 4.350441850223821E+08, 3.166516349291446E+08, 1.101642184905760E+07,
2459930.500000000, A.D. 2022-Dec-17 00:00:00.0000, 4.297397809726338E+08, 3.232575798021263E+08, 8.802286576001376E+06,
2459937.500000000, A.D. 2022-Dec-24 00:00:00.0000, 4.243015043880847E+08, 3.297624384440200E+08, 6.585379791415140E+06,
2459944.500000000, A.D. 2022-Dec-31 00:00:00.0000, 4.187307529281057E+08, 3.361639524965295E+08, 4.366391550856501E+06,
2459951.500000000, A.D. 2023-Jan-07 00:00:00.0000, 4.130289556797228E+08, 3.424598708149599E+08, 2.146015180328369E+06,
2459958.500000000, A.D. 2023-Jan-14 00:00:00.0000, 4.071975734472135E+08, 3.486479514051681E+08, -7.505244956499338E+04,
2459965.500000000, A.D. 2023-Jan-21 00:00:00.0000, 4.012380970462877E+08, 3.547259616173957E+08, -2.296110608803451E+06,
2459972.500000000, A.D. 2023-Jan-28 00:00:00.0000, 3.951520472723752E+08, 3.606916764033040E+08, -4.516454704999611E+06,
2459979.500000000, A.D. 2023-Feb-04 00:00:00.0000, 3.889409763350173E+08, 3.665428776640637E+08, -6.735376326026291E+06,
2459986.500000000, A.D. 2023-Feb-11 00:00:00.0000, 3.826064689627577E+08, 3.722773544962411E+08, -8.952163179532319E+06,
2459993.500000000, A.D. 2023-Feb-18 00:00:00.0000, 3.761501431151987E+08, 3.778929035129859E+08, -1.116609899092850E+07,
2460000.500000000, A.D. 2023-Feb-25 00:00:00.0000, 3.695736505649003E+08, 3.833873290792468E+08, -1.337646339727013E+07,
2460007.500000000, A.D. 2023-Mar-04 00:00:00.0000, 3.628786774507888E+08, 3.887584434803373E+08, -1.558253184490904E+07,
2460014.500000000, A.D. 2023-Mar-11 00:00:00.0000, 3.560669448308526E+08, 3.940040670253337E+08, -1.778357549343997E+07,
2460021.500000000, A.D. 2023-Mar-18 00:00:00.0000, 3.491402092805004E+08, 3.991220280375812E+08, -1.997886113417825E+07,
2460028.500000000, A.D. 2023-Mar-25 00:00:00.0000, 3.421002637398747E+08, 4.041101626875707E+08, -2.216765114558960E+07,
2460035.500000000, A.D. 2023-Apr-01 00:00:00.0000, 3.349489390355785E+08, 4.089663150641190E+08, -2.434920349252778E+07,
2460042.500000000, A.D. 2023-Apr-08 00:00:00.0000, 3.276881054624906E+08, 4.136883387101787E+08, -2.652277161292405E+07,
2460049.500000000, A.D. 2023-Apr-15 00:00:00.0000, 3.203196720881806E+08, 4.182740985176840E+08, -2.868760406800678E+07,
2460056.500000000, A.D. 2023-Apr-22 00:00:00.0000, 3.128455855888841E+08, 4.227214699319288E+08, -3.084294437153472E+07,
2460063.500000000, A.D. 2023-Apr-29 00:00:00.0000, 3.052678313533542E+08, 4.270283377203985E+08, -3.298803106532896E+07,
2460070.500000000, A.D. 2023-May-06 00:00:00.0000, 2.975884350943107E+08, 4.311925960876399E+08, -3.512209773454921E+07,
2460077.500000000, A.D. 2023-May-13 00:00:00.0000, 2.898094639897870E+08, 4.352121492435912E+08, -3.724437294652140E+07,
2460084.500000000, A.D. 2023-May-20 00:00:00.0000, 2.819330275878638E+08, 4.390849119358646E+08, -3.935408017522404E+07,
2460091.500000000, A.D. 2023-May-27 00:00:00.0000, 2.739612786677674E+08, 4.428088099182525E+08, -4.145043773218678E+07,
2460098.500000000, A.D. 2023-Jun-03 00:00:00.0000, 2.658964141143979E+08, 4.463817803831767E+08, -4.353265870762180E+07,
2460105.500000000, A.D. 2023-Jun-10 00:00:00.0000, 2.577406758294800E+08, 4.498017723461037E+08, -4.559995092578653E+07,
2460112.500000000, A.D. 2023-Jun-17 00:00:00.0000, 2.494963517677131E+08, 4.530667469237467E+08, -4.765151692836960E+07,
2460119.500000000, A.D. 2023-Jun-24 00:00:00.0000, 2.411657774172868E+08, 4.561746775638812E+08, -4.968655401146168E+07,
2460126.500000000, A.D. 2023-Jul-01 00:00:00.0000, 2.327513379776385E+08, 4.591235510571810E+08, -5.170425427251454E+07,
2460133.500000000, A.D. 2023-Jul-08 00:00:00.0000, 2.242554695600636E+08, 4.619113701543018E+08, -5.370380444727619E+07,
2460140.500000000, A.D. 2023-Jul-15 00:00:00.0000, 2.156806581323262E+08, 4.645361549593666E+08, -5.568438565113477E+07,
2460147.500000000, A.D. 2023-Jul-22 00:00:00.0000, 2.070294397271237E+08, 4.669959420691081E+08, -5.764517343310055E+07,
$$EOE